#dP2021  2  8  0  0  0.00000000      97 __u+U IGS14 FIT  IAC
## 2144  86400.00000000   900.00000000 59253 0.0000000000000
+  122   C01C02C03C04C05C06C07C08C09C10C11C12C13C14C16C19C20
+        C21C22C23C24C25C26C27C28C29C30C32C33C34C35C36C37C38
+        C39C40C41C42C43C44C45C46E01E02E03E04E05E07E08E09E11
+        E12E13E14E15E18E19E21E24E25E26E27E30E31E33E36G01G02
+        G03G04G05G06G07G08G09G10G11G12G13G14G15G16G17G18G19
+        G20G21G22G23G24G25G26G27G28G29G30G31G32J01J02J03J07
+        R01R02R03R04R05R07R08R11R12R13R14R15R16R17R18R19R20
+        R21R22R24  0  0  0  0  0  0  0  0  0  0  0  0  0  0
++        13 12 13 13 13  9  9  9  9  9  8  8  8 11  9  7  7
++         7  7  7  7  7  7  8  7  7  8  7  7  7  7  8  7  8
++         8  8  8  8  8  8  8  8  4  4  4  4  4  5  4  4  4
++         4  4  4  4  4  4  4  4  5  4  4  4  4  4  4  3  4
++         3  3  4  3  3  3  3  3  4  3  3  3  3  4  4  3  3
++         3  3  3  3  3  3  4  3  3  3  3  4  3  8  8  8 13
++         6  5  5  5  5  5  5  7  6  6  5  5  6  5  5  6  6
++         5  6  6  0  0  0  0  0  0  0  0  0  0  0  0  0  0
%c M  cc GPS ccc cccc cccc cccc cccc ccccc ccccc ccccc ccccc
%c cc cc ccc ccc cccc cccc cccc cccc ccccc ccccc ccccc ccccc
%f  1.2500000  1.025000000  0.00000000000  0.000000000000000
%f  0.0000000  0.000000000  0.00000000000  0.000000000000000
%i    0    0    0    0      0      0      0      0         0
%i    0    0    0    0      0      0      0      0         0
/* INFORMATION & ANALYSIS CENTER (IAC)            FINAL DATA
/* S/V CLOCKS ARE ALIGNED TO GNSS TIME                      
/* G:C1WC2W R:C1PC2P E:C1XC5X C:C2IC6I J:C1CC2S             
/* PCV:IGS14_2134 OL/AL:FES2004  NONE     YN ORB:CoN CLK:CoN
*  2021 02 08  0 30  0.00000000
PC01 -34363.213449  24417.755579   -138.680282   -732.900790
PC02   4516.586653  41939.240530    717.179670    530.877945
PC03 -14801.396108  39521.039684   -164.493901   -472.346763
PC04 -39639.541906  14328.410363   -653.350011   -340.344631
PC05  21908.699533  36020.752370   1086.411884   -711.704536
PC06  -7619.974642  24554.147423  33908.473400     72.138442
PC07 -23946.986259  30190.724236 -17406.923679   -304.598956
PC08 -11257.475183  37382.801299 -15296.312135   -918.083522
PC09   6698.409230  30772.315807  28496.797394    748.756075
PC10 -11110.885970  31083.504536 -26247.440566    -90.237607
PC11 -12390.501941   9171.736918 -23196.006362   -936.602668
PC12 -22253.555208  -7418.484505 -15087.757900    782.813835
PC13  -2054.051896  41961.382225   -630.482556    132.054276
PC14 -22630.481746  13676.628508   9026.493395     84.303087
PC16  -6190.727784  24460.655485  33897.000119   -687.518889
PC19  14760.906053 -16757.660118 -16702.192135    719.826968
PC20  26313.450459  -9167.428786  -1242.765902   -913.524132
PC21 -22687.948236  -4285.474634 -15667.906074   -827.939488
PC22  -5719.805915 -14847.858001 -22923.058893   -871.658322
PC23   2735.482628  25134.143891 -11804.058385   -876.711607
PC24 -16873.595857  10361.033262  19638.649140   -755.968056
PC25  -9089.463154  25882.903034   5041.213422   -925.579728
PC26 -14248.560418  -9130.956989  22184.840270    951.658605
PC27  22502.032464  15057.449269   6790.149105    479.648120
PC28  12676.683154  22412.459224 -10748.689551   -112.183590
PC29   3923.696873 -16801.844766  21928.130071    349.396754
PC30  19346.600878  -1403.200462  20070.713291    441.882428
PC32  22692.069989   4168.818910  15709.876148   -891.550638
PC33 -14746.345994  16861.177563  16657.321118   -955.603697
PC34 -18960.392844   2043.932209 -20368.029232   -745.054007
PC35 -13164.395085 -21991.803880  10991.424513   -428.377243
PC36   9869.423629 -25552.169191  -5333.715704   -760.116285
PC37  13709.515119  10286.856755 -22005.880588   -863.444825
PC38 -10505.740794  38668.521843 -12890.490940    128.710305
PC39  -3782.594190  25061.048337  33718.283154     28.237994
PC40 -18697.196396  26734.402863 -26781.109711    129.314566
PC41   5477.168681  14993.707021  22937.015595   -930.645849
PC42 -26472.062977   8826.847164    656.004786   -852.408892
PC43  -4497.538850  16606.587189 -21977.982765   -587.887866
PC44 -22968.121171 -14374.602918  -6600.855953     27.362588
PC45  -2764.247959 -25108.838271  11888.471805    356.318555
PC46  16670.313783 -11385.971345 -19283.840347    415.563841
PE01 -20876.691180  20512.422694   4375.324959  -1041.477508
PE02  20850.448959 -20591.159525  -4271.640459    196.808496
PE03  20813.985594  -9852.434641 -18596.711117   -396.167267
PE04   -398.711452  17212.325481  24079.524071   -705.239983
PE05  29328.373888   3409.159843  -2108.501761   -306.377679
PE07 -20647.165676 -14545.749469 -15440.238406   -497.987375
PE08    -76.730286 -17113.090469 -24154.349942   6050.261306
PE09  20847.242996  14287.691976  15399.182812   5772.755140
PE11  15061.184644  24102.514946   8304.872857   6353.266009
PE12   2698.009267  27328.750191 -11063.952505   5367.147838
PE13 -14935.681285 -24288.318873  -7923.945123    411.687283
PE14  -4858.212658  19990.889867 -24498.091364  -1322.269436
PE15  -2830.352155 -27302.645758  11084.714480    830.398940
PE18  -6916.162269 -17781.780881  15664.723573  -1445.380450
PE19 -22584.796403   8396.970669  17190.175167    198.274270
PE21 -21395.532902   4947.705273  19838.937952   -647.235714
PE24   9013.755712  14616.870865 -24119.401718   -731.856585
PE25  21350.858643  -4789.988428 -19937.613696   -525.975572
PE26 -18250.698332  -6259.674335 -22436.599220   2173.749476
PE27  -9537.969921 -14049.303621  24247.551874     34.522821
PE30   8615.063869 -24778.157569  13722.861323   3199.021018
PE31  -7836.036872  24651.077802 -14376.362585   -478.084562
PE33 -10901.934989  14264.518622 -23522.833335   -465.510906
PE36  18243.191548   6994.867735  22249.338837    443.602496
PG01  13824.440723  -5637.196935  21692.489012    765.615841
PG02 -13554.575094 -17958.153886 -13436.533711   -574.535200
PG03  22626.207385 -12144.206015   6490.192171    -77.120710
PG04  22478.540607   -968.775319 -14150.888060   -178.655812
PG05 -17466.765563  -3629.629066 -19885.334583    -33.102402
PG06  -5735.255991 -25724.575937  -2993.594346     -3.413468
PG07   7757.654898 -20280.911722 -14620.179269     50.814283
PG08  25275.714994   3899.581496   7719.866008     -9.490217
PG09  13165.326797 -10612.730569 -20547.659850   -320.775339
PG10  -5384.018671  19419.363566  17269.612192    -56.680305
PG11  18639.329020   1725.220624  18268.957789    -30.844857
PG12 -23237.095368   7698.175073   9862.151780      1.971375
PG13 -22967.020617 -13457.598159   -799.004505     94.700921
PG14   7952.449307 -19582.964491  16071.635143     95.087738
PG15 -25574.796474  -1279.650388   7353.239744   -170.925684
PG16  15909.423029   6338.582084 -20660.004375   -276.809233
PG17  -4511.299591 -17051.063014  20290.981841    390.343856
PG18  -6091.427547  22480.580735 -12716.769062    346.175466
PG19 -12539.823704 -17859.849005  14919.718478    -41.430666
PG20 -14044.554786  21452.231863   6305.844495    524.797558
PG21  16274.323598   3042.606841  21579.311567     93.691987
PG22  21540.861769  -5743.107144  14507.789122   -683.580387
PG23 -14939.865888  20173.081118   8594.154198    118.149686
PG24 -15842.837787    405.235731  21101.185255      2.632404
PG25 -19345.231134  17790.365026  -2827.534279     75.996576
PG26   6994.520279  14319.192082 -21270.002159     41.658126
PG27  23044.452116  12737.717273  -4916.744102    -71.944540
PG28   5437.117346 -18668.779002  18741.184496    618.711726
PG29 -13950.486638   8675.532203 -20919.214329   -290.818988
PG30    279.702887 -26047.836685  -4490.901215   -381.344745
PG31   7106.754124  24665.981188  -5862.343026    -98.742356
PG32   6651.648849  17175.294057  19290.482920     17.912260
PJ01 -30542.094862  25093.614877  19777.089389   -339.746223
PJ02 -33369.795290  24854.134415  11763.267794      1.595214
PJ03 -22899.565455  18823.150558 -25364.608241     -0.548340
PJ07 -25338.135444  33697.858038     34.086302      0.029913
PR01   2183.850468  10870.379370  22972.094814     74.669025
PR02  21680.667596   3786.414408  12987.621350    466.152497
PR03  24740.212871  -4804.575215  -4077.994151     30.486134
PR04  13811.757841 -10406.704238 -18729.262276     73.187356
PR05  -4765.246302 -10239.891974 -22859.987812     66.141948
PR07 -24498.264157   5115.679963   4842.464201    -42.371488
PR08 -13703.150307  10550.339982  18793.631558    -57.265733
PR11 -10790.102940  22978.951357   2536.599781      3.613488
PR12  -1269.293702  20768.579632 -14714.786666    203.194213
PR13   9061.754332   6685.236551 -22907.947482    -50.426939
PR14  14251.430857 -11821.505493 -17534.578746     60.762302
PR15  10988.471586 -22926.538719  -2110.889571    105.524399
PR16    213.912108 -20456.790376  15299.355650    -11.048443
PR17  13517.115013   1812.771450  21562.369339    398.161279
PR18   2572.786152 -13076.284930  21757.431907     65.899873
PR19  -8787.529877 -21279.226245  10990.303075   -131.134819
PR20 -16620.463038 -17174.974719  -8835.322408   -432.883964
PR21 -12913.448206   -873.621300 -21978.553990   -186.087672
PR22  -1641.491549  13996.671449 -21294.873369    -96.703206
PR24  17087.603994  16406.565916   9472.245403     30.711675
EOF
